[{"OBJECT_NAME":"STARLINK-30375","OBJECT_ID":"2023-131A","EPOCH":"2026-03-09T22:52:41.457504","MEAN_MOTION":15.26705495,"ECCENTRICITY":0.00014103,"INCLINATION":43.0015,"RA_OF_ASC_NODE":155.9024,"ARG_OF_PERICENTER":261.0361,"MEAN_ANOMALY":99.0331,"EPHEMERIS_TYPE":0,"CLASSIFICATION_TYPE":"U","NORAD_CAT_ID":57732,"ELEMENT_SET_NO":999,"REV_AT_EPOCH":14014,"BSTAR":4.0278757e-5,"MEAN_MOTION_DOT":8.2e-6,"MEAN_MOTION_DDOT":0},{"OBJECT_NAME":"FLOCK 4G-17","OBJECT_ID":"2025-009CA","EPOCH":"2026-03-09T22:51:51.984864","MEAN_MOTION":15.27385439,"ECCENTRICITY":0.00036407,"INCLINATION":97.3966,"RA_OF_ASC_NODE":151.0229,"ARG_OF_PERICENTER":339.6132,"MEAN_ANOMALY":20.4962,"EPHEMERIS_TYPE":0,"CLASSIFICATION_TYPE":"U","NORAD_CAT_ID":62681,"ELEMENT_SET_NO":999,"REV_AT_EPOCH":12139,"BSTAR":0.00053710713,"MEAN_MOTION_DOT":0.00014342,"MEAN_MOTION_DDOT":0}]
